{
  "type": "FeatureCollection",
  "features": [
    {
      "type": "Feature",
      "properties": {
        "norad_id": 67096,
        "name": "STARLINK-36228",
        "group": "last-30-days",
        "lat": 16.777893112669155,
        "lon": 34.674583626095725,
        "alt_km": 304.7971085511581,
        "timestamp": "2025-12-22T22:44:19.654448+00:00",
        "meta_object_name": "STARLINK-36228",
        "meta_object_id": "2025-298X",
        "meta_epoch": "2025-12-22T14:00:01.999872",
        "meta_mean_motion": 15.89904405,
        "meta_eccentricity": 0.00041976,
        "meta_inclination": 69.9967,
        "meta_ra_of_asc_node": 222.0339,
        "meta_arg_of_pericenter": 263.1033,
        "meta_mean_anomaly": 336.0207,
        "meta_ephemeris_type": 0,
        "meta_classification_type": "U",
        "meta_norad_cat_id": 67096,
        "meta_element_set_no": 999,
        "meta_rev_at_epoch": 250,
        "meta_bstar": -0.0027111795,
        "meta_mean_motion_dot": -0.0081003,
        "meta_mean_motion_ddot": 0.00020035931,
        "tle_line1": "1 67096U 25298X   25356.58335648 -.00810030  20036-3 -27112-2 0  9990",
        "tle_line2": "2 67096  69.9967 222.0339 0004197 263.1033 336.0207 15.89904405  2509"
      },
      "geometry": {
        "type": "Point",
        "coordinates": [
          34.674583626095725,
          16.777893112669155
        ]
      }
    },
    {
      "type": "Feature",
      "properties": {
        "norad_id": 67097,
        "name": "STARLINK-36222",
        "group": "last-30-days",
        "lat": 14.884629571480136,
        "lon": 35.42126280135379,
        "alt_km": 304.9524527902322,
        "timestamp": "2025-12-22T22:44:19.654461+00:00",
        "meta_object_name": "STARLINK-36222",
        "meta_object_id": "2025-298Y",
        "meta_epoch": "2025-12-22T14:00:01.999872",
        "meta_mean_motion": 15.90001099,
        "meta_eccentricity": 0.00044442,
        "meta_inclination": 69.9966,
        "meta_ra_of_asc_node": 222.0314,
        "meta_arg_of_pericenter": 261.5908,
        "meta_mean_anomaly": 339.4996,
        "meta_ephemeris_type": 0,
        "meta_classification_type": "U",
        "meta_norad_cat_id": 67097,
        "meta_element_set_no": 999,
        "meta_rev_at_epoch": 250,
        "meta_bstar": -0.0031660891,
        "meta_mean_motion_dot": -0.00949684,
        "meta_mean_motion_ddot": 0.00026927804,
        "tle_line1": "1 67097U 25298Y   25356.58335648 -.00949684  26928-3 -31661-2 0  9999",
        "tle_line2": "2 67097  69.9966 222.0314 0004444 261.5908 339.4996 15.90001099  2501"
      },
      "geometry": {
        "type": "Point",
        "coordinates": [
          35.42126280135379,
          14.884629571480136
        ]
      }
    },
    {
      "type": "Feature",
      "properties": {
        "norad_id": 67098,
        "name": "STARLINK-36205",
        "group": "last-30-days",
        "lat": 12.82188657571713,
        "lon": 36.21911761433971,
        "alt_km": 304.82176614652053,
        "timestamp": "2025-12-22T22:44:19.654471+00:00",
        "meta_object_name": "STARLINK-36205",
        "meta_object_id": "2025-298Z",
        "meta_epoch": "2025-12-22T14:00:01.999872",
        "meta_mean_motion": 15.89988591,
        "meta_eccentricity": 0.00039828,
        "meta_inclination": 69.9965,
        "meta_ra_of_asc_node": 222.0288,
        "meta_arg_of_pericenter": 258.3603,
        "meta_mean_anomaly": 344.8992,
        "meta_ephemeris_type": 0,
        "meta_classification_type": "U",
        "meta_norad_cat_id": 67098,
        "meta_element_set_no": 999,
        "meta_rev_at_epoch": 256,
        "meta_bstar": -0.0028475002,
        "meta_mean_motion_dot": -0.00854035,
        "meta_mean_motion_ddot": 0.00022118388,
        "tle_line1": "1 67098U 25298Z   25356.58335648 -.00854035  22118-3 -28475-2 0  9991",
        "tle_line2": "2 67098  69.9965 222.0288 0003982 258.3603 344.8992 15.89988591  2564"
      },
      "geometry": {
        "type": "Point",
        "coordinates": [
          36.21911761433971,
          12.82188657571713
        ]
      }
    },
    {
      "type": "Feature",
      "properties": {
        "norad_id": 67099,
        "name": "STARLINK-36193",
        "group": "last-30-days",
        "lat": 9.512971513242624,
        "lon": 37.47115888248671,
        "alt_km": 305.53883931162454,
        "timestamp": "2025-12-22T22:44:19.654483+00:00",
        "meta_object_name": "STARLINK-36193",
        "meta_object_id": "2025-298AA",
        "meta_epoch": "2025-12-22T14:00:01.999872",
        "meta_mean_motion": 15.90149366,
        "meta_eccentricity": 0.00040224,
        "meta_inclination": 69.9965,
        "meta_ra_of_asc_node": 222.0248,
        "meta_arg_of_pericenter": 263.2424,
        "meta_mean_anomaly": 343.4749,
        "meta_ephemeris_type": 0,
        "meta_classification_type": "U",
        "meta_norad_cat_id": 67099,
        "meta_element_set_no": 999,
        "meta_rev_at_epoch": 250,
        "meta_bstar": -0.0038157928,
        "meta_mean_motion_dot": -0.0115125,
        "meta_mean_motion_ddot": 0.00038493632,
        "tle_line1": "1 67099U 25298AA  25356.58335648 -.01151250  38494-3 -38158-2 0  9995",
        "tle_line2": "2 67099  69.9965 222.0248 0004022 263.2424 343.4749 15.90149366  2503"
      },
      "geometry": {
        "type": "Point",
        "coordinates": [
          37.47115888248671,
          9.512971513242624
        ]
      }
    },
    {
      "type": "Feature",
      "properties": {
        "norad_id": 67100,
        "name": "STARLINK-36215",
        "group": "last-30-days",
        "lat": 7.730279646846638,
        "lon": 38.13431191399934,
        "alt_km": 305.41238054858877,
        "timestamp": "2025-12-22T22:44:19.654494+00:00",
        "meta_object_name": "STARLINK-36215",
        "meta_object_id": "2025-298AB",
        "meta_epoch": "2025-12-22T14:00:01.999872",
        "meta_mean_motion": 15.90183854,
        "meta_eccentricity": 0.00033882,
        "meta_inclination": 69.9966,
        "meta_ra_of_asc_node": 222.0225,
        "meta_arg_of_pericenter": 255.9386,
        "meta_mean_anomaly": 352.6475,
        "meta_ephemeris_type": 0,
        "meta_classification_type": "U",
        "meta_norad_cat_id": 67100,
        "meta_element_set_no": 999,
        "meta_rev_at_epoch": 256,
        "meta_bstar": -0.0039703603,
        "meta_mean_motion_dot": -0.01199285,
        "meta_mean_motion_ddot": 0.00041525471,
        "tle_line1": "1 67100U 25298AB  25356.58335648 -.01199285  41525-3 -39704-2 0  9995",
        "tle_line2": "2 67100  69.9966 222.0225 0003388 255.9386 352.6475 15.90183854  2565"
      },
      "geometry": {
        "type": "Point",
        "coordinates": [
          38.13431191399934,
          7.730279646846638
        ]
      }
    },
    {
      "type": "Feature",
      "properties": {
        "norad_id": 67101,
        "name": "STARLINK-36200",
        "group": "last-30-days",
        "lat": 11.169647835587007,
        "lon": 36.84858540889021,
        "alt_km": 305.23220138182205,
        "timestamp": "2025-12-22T22:44:19.654504+00:00",
        "meta_object_name": "STARLINK-36200",
        "meta_object_id": "2025-298AC",
        "meta_epoch": "2025-12-22T14:00:01.999872",
        "meta_mean_motion": 15.90075618,
        "meta_eccentricity": 0.00038507,
        "meta_inclination": 69.997,
        "meta_ra_of_asc_node": 222.0271,
        "meta_arg_of_pericenter": 259.9048,
        "meta_mean_anomaly": 345.0981,
        "meta_ephemeris_type": 0,
        "meta_classification_type": "U",
        "meta_norad_cat_id": 67101,
        "meta_element_set_no": 999,
        "meta_rev_at_epoch": 256,
        "meta_bstar": -0.0035218726,
        "meta_mean_motion_dot": -0.01059286,
        "meta_mean_motion_ddot": 0.00032981341,
        "tle_line1": "1 67101U 25298AC  25356.58335648 -.01059286  32981-3 -35219-2 0  9995",
        "tle_line2": "2 67101  69.9970 222.0271 0003850 259.9048 345.0981 15.90075618  2561"
      },
      "geometry": {
        "type": "Point",
        "coordinates": [
          36.84858540889021,
          11.169647835587007
        ]
      }
    },
    {
      "type": "Feature",
      "properties": {
        "norad_id": 67102,
        "name": "STARLINK-36255",
        "group": "last-30-days",
        "lat": -5.75167237117377,
        "lon": -111.96477376543277,
        "alt_km": 294.88094141724105,
        "timestamp": "2025-12-22T22:44:19.654514+00:00",
        "meta_object_name": "STARLINK-36255",
        "meta_object_id": "2025-299A",
        "meta_epoch": "2025-12-22T14:00:01.999872",
        "meta_mean_motion": 15.93987394,
        "meta_eccentricity": 0.00017383,
        "meta_inclination": 42.9985,
        "meta_ra_of_asc_node": 256.511,
        "meta_arg_of_pericenter": 267.6684,
        "meta_mean_anomaly": 152.8428,
        "meta_ephemeris_type": 0,
        "meta_classification_type": "U",
        "meta_norad_cat_id": 67102,
        "meta_element_set_no": 999,
        "meta_rev_at_epoch": 239,
        "meta_bstar": -0.0044390308,
        "meta_mean_motion_dot": -0.01687507,
        "meta_mean_motion_ddot": 0.00080372382,
        "tle_line1": "1 67102U 25299A   25356.58335648 -.01687507  80372-3 -44390-2 0  9997",
        "tle_line2": "2 67102  42.9985 256.5110 0001738 267.6684 152.8428 15.93987394  2395"
      },
      "geometry": {
        "type": "Point",
        "coordinates": [
          -111.96477376543277,
          -5.75167237117377
        ]
      }
    }
  ]
}